start=new Date('2022-11-27T00:00:00.000Z').valueOf();
sats=[{"NORAD_CAT_ID":"52632","SITE":"AFETR","MEAN_ANOMALY":"325.9806","APOAPSIS":"541.390","PERIOD":"95.437","MEAN_ELEMENT_THEORY":"SGP4","FILE":"3671048","LAUNCH_DATE":"2022-05-14","CLASSIFICATION_TYPE":"U","COUNTRY_CODE":"US","GP_ID":"218893240","TLE_LINE2":"2 52632  53.2193 251.2601 0002415  34.1341 325.9806 15.08848361 30008","ECCENTRICITY":"0.00024150","ELEMENT_SET_NO":"999","MEAN_MOTION_DDOT":"0.0000000000000","PERIAPSIS":"538.049","REF_FRAME":"TEME","MEAN_MOTION_DOT":"0.00001878","ARG_OF_PERICENTER":"34.1341","OBJECT_NAME":"STARLINK-3995","REV_AT_EPOCH":"3000","TLE_LINE1":"1 52632U 22052AL  22330.77397043  .00001878  00000-0  13604-3 0  9990","EPOCH":"2022-11-26T18:34:31.045152","BSTAR":"0.00013604000000","EPHEMERIS_TYPE":"0","RA_OF_ASC_NODE":"251.2601","RCS_SIZE":"LARGE","CENTER_NAME":"EARTH","OBJECT_ID":"2022-052AL","INCLINATION":"53.2193","DECAY_DATE":null,"MEAN_MOTION":"15.08848361","TIME_SYSTEM":"UTC","SEMIMAJOR_AXIS":"6917.855","OBJECT_TYPE":"PAYLOAD"},{"SITE":"AFETR","NORAD_CAT_ID":"52633","MEAN_ELEMENT_THEORY":"SGP4","APOAPSIS":"541.274","PERIOD":"95.437","MEAN_ANOMALY":"322.0928","GP_ID":"218893989","COUNTRY_CODE":"US","CLASSIFICATION_TYPE":"U","FILE":"3671048","LAUNCH_DATE":"2022-05-14","PERIAPSIS":"538.200","REF_FRAME":"TEME","MEAN_MOTION_DDOT":"0.0000000000000","ECCENTRICITY":"0.00022220","ELEMENT_SET_NO":"999","TLE_LINE2":"2 52633  53.2187 251.0637 0002222  38.0221 322.0928 15.08842848 30013","REV_AT_EPOCH":"3001","OBJECT_NAME":"STARLINK-3994","ARG_OF_PERICENTER":"38.0221","MEAN_MOTION_DOT":"0.00002243","TLE_LINE1":"1 52633U 22052AM  22330.81813227  .00002243  00000-0  15896-3 0  9995","EPOCH":"2022-11-26T19:38:06.628128","EPHEMERIS_TYPE":"0","BSTAR":"0.00015896000000","RCS_SIZE":"LARGE","RA_OF_ASC_NODE":"251.0637","OBJECT_ID":"2022-052AM","CENTER_NAME":"EARTH","INCLINATION":"53.2187","TIME_SYSTEM":"UTC","MEAN_MOTION":"15.08842848","DECAY_DATE":null,"OBJECT_TYPE":"PAYLOAD","SEMIMAJOR_AXIS":"6917.872"},{"EPHEMERIS_TYPE":"0","BSTAR":"0.00023508000000","RCS_SIZE":"LARGE","RA_OF_ASC_NODE":"251.3142","CENTER_NAME":"EARTH","OBJECT_ID":"2022-052AN","INCLINATION":"53.2189","DECAY_DATE":null,"TIME_SYSTEM":"UTC","MEAN_MOTION":"15.08850680","SEMIMAJOR_AXIS":"6917.848","OBJECT_TYPE":"PAYLOAD","SITE":"AFETR","NORAD_CAT_ID":"52634","MEAN_ANOMALY":"323.8017","MEAN_ELEMENT_THEORY":"SGP4","APOAPSIS":"541.479","PERIOD":"95.437","FILE":"3671048","LAUNCH_DATE":"2022-05-14","GP_ID":"218894241","COUNTRY_CODE":"US","CLASSIFICATION_TYPE":"U","ELEMENT_SET_NO":"999","ECCENTRICITY":"0.00025530","TLE_LINE2":"2 52634  53.2189 251.3142 0002553  36.3148 323.8017 15.08850680 29992","PERIAPSIS":"537.947","MEAN_MOTION_DDOT":"0.0000000000000","REF_FRAME":"TEME","ARG_OF_PERICENTER":"36.3148","MEAN_MOTION_DOT":"0.00003456","REV_AT_EPOCH":"2999","OBJECT_NAME":"STARLINK-3974","TLE_LINE1":"1 52634U 22052AN  22330.76388234  .00003456  00000-0  23508-3 0  9991","EPOCH":"2022-11-26T18:19:59.434176"},{"MEAN_MOTION":"15.08848620","TIME_SYSTEM":"UTC","DECAY_DATE":null,"OBJECT_TYPE":"PAYLOAD","SEMIMAJOR_AXIS":"6917.854","BSTAR":"0.00013223000000","EPHEMERIS_TYPE":"0","RA_OF_ASC_NODE":"241.4343","RCS_SIZE":"LARGE","OBJECT_ID":"2022-052AP","CENTER_NAME":"EARTH","INCLINATION":"53.2176","MEAN_MOTION_DDOT":"0.0000000000000","PERIAPSIS":"537.705","REF_FRAME":"TEME","TLE_LINE2":"2 52635  53.2176 241.4343 0002911  32.2443 327.8726 15.08848620 30133","ECCENTRICITY":"0.00029110","ELEMENT_SET_NO":"999","OBJECT_NAME":"STARLINK-3978","REV_AT_EPOCH":"3013","MEAN_MOTION_DOT":"0.00001817","ARG_OF_PERICENTER":"32.2443","TLE_LINE1":"1 52635U 22052AP  22330.73440840  .00001817  00000-0  13223-3 0  9993","EPOCH":"2022-11-26T17:37:32.885760","NORAD_CAT_ID":"52635","SITE":"AFETR","PERIOD":"95.437","APOAPSIS":"541.733","MEAN_ELEMENT_THEORY":"SGP4","MEAN_ANOMALY":"327.8726","CLASSIFICATION_TYPE":"U","GP_ID":"218894990","COUNTRY_CODE":"US","LAUNCH_DATE":"2022-05-14","FILE":"3671048"},{"MEAN_ANOMALY":"325.5311","MEAN_ELEMENT_THEORY":"SGP4","APOAPSIS":"541.330","PERIOD":"95.437","LAUNCH_DATE":"2022-05-14","FILE":"3670770","COUNTRY_CODE":"US","GP_ID":"218861722","CLASSIFICATION_TYPE":"U","SITE":"AFETR","NORAD_CAT_ID":"52636","TLE_LINE1":"1 52636U 22052AQ  22330.49429758  .00001089  00000-0  86508-4 0  9990","EPOCH":"2022-11-26T11:51:47.310912","ECCENTRICITY":"0.00023020","ELEMENT_SET_NO":"999","TLE_LINE2":"2 52636  53.2184 252.5128 0002302  34.5831 325.5311 15.08842468 29954","MEAN_MOTION_DDOT":"0.0000000000000","PERIAPSIS":"538.145","REF_FRAME":"TEME","ARG_OF_PERICENTER":"34.5831","MEAN_MOTION_DOT":"0.00001089","REV_AT_EPOCH":"2995","OBJECT_NAME":"STARLINK-3967","CENTER_NAME":"EARTH","OBJECT_ID":"2022-052AQ","INCLINATION":"53.2184","EPHEMERIS_TYPE":"0","BSTAR":"0.00008650800000","RCS_SIZE":"LARGE","RA_OF_ASC_NODE":"252.5128","DECAY_DATE":null,"TIME_SYSTEM":"UTC","MEAN_MOTION":"15.08842468","SEMIMAJOR_AXIS":"6917.873","OBJECT_TYPE":"PAYLOAD"},{"RCS_SIZE":"LARGE","RA_OF_ASC_NODE":"241.1579","EPHEMERIS_TYPE":"0","BSTAR":"0.00013341000000","INCLINATION":"53.2173","OBJECT_ID":"2022-052AR","CENTER_NAME":"EARTH","OBJECT_TYPE":"PAYLOAD","SEMIMAJOR_AXIS":"6917.856","TIME_SYSTEM":"UTC","MEAN_MOTION":"15.08848006","DECAY_DATE":null,"SITE":"AFETR","NORAD_CAT_ID":"52637","GP_ID":"218893491","COUNTRY_CODE":"US","CLASSIFICATION_TYPE":"U","FILE":"3671048","LAUNCH_DATE":"2022-05-14","PERIOD":"95.437","APOAPSIS":"541.515","MEAN_ELEMENT_THEORY":"SGP4","MEAN_ANOMALY":"325.5559","REV_AT_EPOCH":"3094","OBJECT_NAME":"STARLINK-3961","ARG_OF_PERICENTER":"34.5601","MEAN_MOTION_DOT":"0.00001836","REF_FRAME":"TEME","PERIAPSIS":"537.927","MEAN_MOTION_DDOT":"0.0000000000000","ELEMENT_SET_NO":"999","ECCENTRICITY":"0.00025930","TLE_LINE2":"2 52637  53.2173 241.1579 0002593  34.5601 325.5559 15.08848006 30943","EPOCH":"2022-11-26T19:07:38.118144","TLE_LINE1":"1 52637U 22052AR  22330.79696896  .00001836  00000-0  13341-3 0  9997"},{"CLASSIFICATION_TYPE":"U","GP_ID":"218894741","COUNTRY_CODE":"US","LAUNCH_DATE":"2022-05-14","FILE":"3671048","APOAPSIS":"541.426","MEAN_ELEMENT_THEORY":"SGP4","PERIOD":"95.437","MEAN_ANOMALY":"326.7923","NORAD_CAT_ID":"52638","SITE":"AFETR","EPOCH":"2022-11-26T18:08:01.468320","TLE_LINE1":"1 52638U 22052AS  22330.75557255  .00000807  00000-0  68798-4 0  9993","OBJECT_NAME":"STARLINK-3941","REV_AT_EPOCH":"3080","MEAN_MOTION_DOT":"0.00000807","ARG_OF_PERICENTER":"33.3223","REF_FRAME":"TEME","PERIAPSIS":"538.037","MEAN_MOTION_DDOT":"0.0000000000000","TLE_LINE2":"2 52638  53.2188 251.3479 0002449  33.3223 326.7923 15.08844497 30802","ELEMENT_SET_NO":"999","ECCENTRICITY":"0.00024490","INCLINATION":"53.2188","OBJECT_ID":"2022-052AS","CENTER_NAME":"EARTH","RA_OF_ASC_NODE":"251.3479","RCS_SIZE":"LARGE","BSTAR":"0.00006879800000","EPHEMERIS_TYPE":"0","OBJECT_TYPE":"PAYLOAD","SEMIMAJOR_AXIS":"6917.867","MEAN_MOTION":"15.08844497","TIME_SYSTEM":"UTC","DECAY_DATE":null},{"OBJECT_ID":"2022-052AT","CENTER_NAME":"EARTH","INCLINATION":"53.2188","EPHEMERIS_TYPE":"0","BSTAR":"0.00011641000000","RCS_SIZE":"LARGE","RA_OF_ASC_NODE":"241.2099","TIME_SYSTEM":"UTC","MEAN_MOTION":"15.08846742","DECAY_DATE":null,"OBJECT_TYPE":"PAYLOAD","SEMIMAJOR_AXIS":"6917.860","MEAN_ELEMENT_THEORY":"SGP4","APOAPSIS":"542.051","PERIOD":"95.437","MEAN_ANOMALY":"327.3536","GP_ID":"218894491","COUNTRY_CODE":"US","CLASSIFICATION_TYPE":"U","LAUNCH_DATE":"2022-05-14","FILE":"3671048","SITE":"AFETR","NORAD_CAT_ID":"52639","TLE_LINE1":"1 52639U 22052AT  22330.78592556  .00001565  00000-0  11641-3 0  9996","EPOCH":"2022-11-26T18:51:43.968384","PERIAPSIS":"537.399","MEAN_MOTION_DDOT":"0.0000000000000","REF_FRAME":"TEME","ELEMENT_SET_NO":"999","ECCENTRICITY":"0.00033620","TLE_LINE2":"2 52639  53.2188 241.2099 0003362  32.7664 327.3536 15.08846742 30943","REV_AT_EPOCH":"3094","OBJECT_NAME":"STARLINK-3968","ARG_OF_PERICENTER":"32.7664","MEAN_MOTION_DOT":"0.00001565"},{"TIME_SYSTEM":"UTC","MEAN_MOTION":"15.08848519","DECAY_DATE":null,"OBJECT_TYPE":"PAYLOAD","SEMIMAJOR_AXIS":"6917.854","EPHEMERIS_TYPE":"0","BSTAR":"0.00008792400000","RCS_SIZE":"LARGE","RA_OF_ASC_NODE":"241.4263","OBJECT_ID":"2022-052AU","CENTER_NAME":"EARTH","INCLINATION":"53.2160","PERIAPSIS":"537.947","REF_FRAME":"TEME","MEAN_MOTION_DDOT":"0.0000000000000","ECCENTRICITY":"0.00025620","ELEMENT_SET_NO":"999","TLE_LINE2":"2 52640  53.2160 241.4263 0002562  34.4866 325.6292 15.08848519 30128","REV_AT_EPOCH":"3012","OBJECT_NAME":"STARLINK-3977","ARG_OF_PERICENTER":"34.4866","MEAN_MOTION_DOT":"0.00001111","TLE_LINE1":"1 52640U 22052AU  22330.73536491  .00001111  00000-0  87924-4 0  9994","EPOCH":"2022-11-26T17:38:55.528224","SITE":"AFETR","NORAD_CAT_ID":"52640","APOAPSIS":"541.492","MEAN_ELEMENT_THEORY":"SGP4","PERIOD":"95.437","MEAN_ANOMALY":"325.6292","COUNTRY_CODE":"US","GP_ID":"218893241","CLASSIFICATION_TYPE":"U","LAUNCH_DATE":"2022-05-14","FILE":"3671048"},{"LAUNCH_DATE":"2022-05-14","FILE":"3670770","CLASSIFICATION_TYPE":"U","GP_ID":"218861973","COUNTRY_CODE":"US","MEAN_ANOMALY":"328.3860","APOAPSIS":"541.749","PERIOD":"95.437","MEAN_ELEMENT_THEORY":"SGP4","NORAD_CAT_ID":"52641","SITE":"AFETR","EPOCH":"2022-11-26T10:49:30.747648","TLE_LINE1":"1 52641U 22052AV  22330.45105032  .00002936  00000-0  20244-3 0  9994","MEAN_MOTION_DOT":"0.00002936","ARG_OF_PERICENTER":"31.7311","OBJECT_NAME":"STARLINK-3991","REV_AT_EPOCH":"3009","TLE_LINE2":"2 52641  53.2167 242.7096 0002967  31.7311 328.3860 15.08855916 30094","ECCENTRICITY":"0.00029670","ELEMENT_SET_NO":"999","MEAN_MOTION_DDOT":"0.0000000000000","PERIAPSIS":"537.644","REF_FRAME":"TEME","INCLINATION":"53.2167","CENTER_NAME":"EARTH","OBJECT_ID":"2022-052AV","RA_OF_ASC_NODE":"242.7096","RCS_SIZE":"LARGE","BSTAR":"0.00020244000000","EPHEMERIS_TYPE":"0","SEMIMAJOR_AXIS":"6917.832","OBJECT_TYPE":"PAYLOAD","DECAY_DATE":null,"MEAN_MOTION":"15.08855916","TIME_SYSTEM":"UTC"}];
